[{"OBJECT_NAME":"STARLINK-2506","OBJECT_ID":"2021-036AR","EPOCH":"2023-02-01T12:43:49.468224","MEAN_MOTION":15.06401774,"ECCENTRICITY":0.0001216,"INCLINATION":53.0548,"RA_OF_ASC_NODE":134.0661,"ARG_OF_PERICENTER":87.8023,"MEAN_ANOMALY":272.3105,"EPHEMERIS_TYPE":0,"CLASSIFICATION_TYPE":"U","NORAD_CAT_ID":48315,"ELEMENT_SET_NO":999,"REV_AT_EPOCH":9752,"BSTAR":6.7271e-5,"MEAN_MOTION_DOT":7.21e-6,"MEAN_MOTION_DDOT":0},{"OBJECT_NAME":"STARLINK-2507","OBJECT_ID":"2021-036AS","EPOCH":"2023-02-01T12:39:52.237152","MEAN_MOTION":15.06405995,"ECCENTRICITY":0.0001089,"INCLINATION":53.0549,"RA_OF_ASC_NODE":134.0893,"ARG_OF_PERICENTER":98.3316,"MEAN_ANOMALY":261.7797,"EPHEMERIS_TYPE":0,"CLASSIFICATION_TYPE":"U","NORAD_CAT_ID":48316,"ELEMENT_SET_NO":999,"REV_AT_EPOCH":9817,"BSTAR":0.00010107,"MEAN_MOTION_DOT":1.225e-5,"MEAN_MOTION_DDOT":0},{"OBJECT_NAME":"STARLINK-2513","OBJECT_ID":"2021-036AT","EPOCH":"2023-02-01T12:34:34.245408","MEAN_MOTION":15.06399485,"ECCENTRICITY":0.0001436,"INCLINATION":53.0576,"RA_OF_ASC_NODE":134.1054,"ARG_OF_PERICENTER":100.4657,"MEAN_ANOMALY":259.6494,"EPHEMERIS_TYPE":0,"CLASSIFICATION_TYPE":"U","NORAD_CAT_ID":48317,"ELEMENT_SET_NO":999,"REV_AT_EPOCH":9817,"BSTAR":6.9939e-5,"MEAN_MOTION_DOT":7.6e-6,"MEAN_MOTION_DDOT":0},{"OBJECT_NAME":"STARLINK-2509","OBJECT_ID":"2021-036AU","EPOCH":"2023-02-01T12:22:37.575552","MEAN_MOTION":15.06400725,"ECCENTRICITY":0.0001406,"INCLINATION":53.0519,"RA_OF_ASC_NODE":144.1519,"ARG_OF_PERICENTER":92.5271,"MEAN_ANOMALY":267.5879,"EPHEMERIS_TYPE":0,"CLASSIFICATION_TYPE":"U","NORAD_CAT_ID":48318,"ELEMENT_SET_NO":999,"REV_AT_EPOCH":9802,"BSTAR":6.0734e-5,"MEAN_MOTION_DOT":6.23e-6,"MEAN_MOTION_DDOT":0},{"OBJECT_NAME":"STARLINK-2512","OBJECT_ID":"2021-036AV","EPOCH":"2023-02-01T12:15:57.934080","MEAN_MOTION":15.06396081,"ECCENTRICITY":0.0001233,"INCLINATION":53.0531,"RA_OF_ASC_NODE":144.1683,"ARG_OF_PERICENTER":78.0074,"MEAN_ANOMALY":282.1053,"EPHEMERIS_TYPE":0,"CLASSIFICATION_TYPE":"U","NORAD_CAT_ID":48319,"ELEMENT_SET_NO":999,"REV_AT_EPOCH":9738,"BSTAR":4.6467e-5,"MEAN_MOTION_DOT":4.11e-6,"MEAN_MOTION_DDOT":0},{"OBJECT_NAME":"STARLINK-2029","OBJECT_ID":"2021-036AW","EPOCH":"2023-02-01T12:12:00.720288","MEAN_MOTION":15.06393834,"ECCENTRICITY":0.0001197,"INCLINATION":53.0536,"RA_OF_ASC_NODE":144.1842,"ARG_OF_PERICENTER":81.4279,"MEAN_ANOMALY":278.6845,"EPHEMERIS_TYPE":0,"CLASSIFICATION_TYPE":"U","NORAD_CAT_ID":48320,"ELEMENT_SET_NO":999,"REV_AT_EPOCH":9738,"BSTAR":0.00022829,"MEAN_MOTION_DOT":3.12e-5,"MEAN_MOTION_DDOT":0},{"OBJECT_NAME":"STARLINK-2457","OBJECT_ID":"2021-036AX","EPOCH":"2023-02-01T12:06:42.231744","MEAN_MOTION":15.0639864,"ECCENTRICITY":0.00011,"INCLINATION":53.0534,"RA_OF_ASC_NODE":144.2046,"ARG_OF_PERICENTER":91.8873,"MEAN_ANOMALY":268.2242,"EPHEMERIS_TYPE":0,"CLASSIFICATION_TYPE":"U","NORAD_CAT_ID":48321,"ELEMENT_SET_NO":999,"REV_AT_EPOCH":9738,"BSTAR":8.7156e-5,"MEAN_MOTION_DOT":1.017e-5,"MEAN_MOTION_DDOT":0},{"OBJECT_NAME":"STARLINK-2477","OBJECT_ID":"2021-036AY","EPOCH":"2023-02-01T12:01:24.125088","MEAN_MOTION":15.0639925,"ECCENTRICITY":0.000137,"INCLINATION":53.0524,"RA_OF_ASC_NODE":144.2208,"ARG_OF_PERICENTER":83.7011,"MEAN_ANOMALY":276.4134,"EPHEMERIS_TYPE":0,"CLASSIFICATION_TYPE":"U","NORAD_CAT_ID":48322,"ELEMENT_SET_NO":999,"REV_AT_EPOCH":9738,"BSTAR":0.00012734,"MEAN_MOTION_DOT":1.616e-5,"MEAN_MOTION_DDOT":0},{"OBJECT_NAME":"STARLINK-2515","OBJECT_ID":"2021-036AZ","EPOCH":"2023-02-02T00:40:23.874240","MEAN_MOTION":15.06402298,"ECCENTRICITY":9.52e-5,"INCLINATION":53.056,"RA_OF_ASC_NODE":141.8489,"ARG_OF_PERICENTER":82.4982,"MEAN_ANOMALY":277.6115,"EPHEMERIS_TYPE":0,"CLASSIFICATION_TYPE":"U","NORAD_CAT_ID":48323,"ELEMENT_SET_NO":999,"REV_AT_EPOCH":9805,"BSTAR":6.4303e-5,"MEAN_MOTION_DOT":6.77e-6,"MEAN_MOTION_DDOT":0},{"OBJECT_NAME":"STARLINK-2527","OBJECT_ID":"2021-036BA","EPOCH":"2023-02-02T00:33:44.181792","MEAN_MOTION":15.06395143,"ECCENTRICITY":0.0001195,"INCLINATION":53.0546,"RA_OF_ASC_NODE":141.865,"ARG_OF_PERICENTER":77.9785,"MEAN_ANOMALY":282.1338,"EPHEMERIS_TYPE":0,"CLASSIFICATION_TYPE":"U","NORAD_CAT_ID":48324,"ELEMENT_SET_NO":999,"REV_AT_EPOCH":9805,"BSTAR":9.5449e-5,"MEAN_MOTION_DOT":1.14e-5,"MEAN_MOTION_DDOT":0},{"OBJECT_NAME":"STARLINK-2495","OBJECT_ID":"2021-036BB","EPOCH":"2023-02-01T13:21:01.020384","MEAN_MOTION":15.06400722,"ECCENTRICITY":0.0001287,"INCLINATION":53.0562,"RA_OF_ASC_NODE":143.9716,"ARG_OF_PERICENTER":81.8512,"MEAN_ANOMALY":278.2623,"EPHEMERIS_TYPE":0,"CLASSIFICATION_TYPE":"U","NORAD_CAT_ID":48325,"ELEMENT_SET_NO":999,"REV_AT_EPOCH":9798,"BSTAR":5.4113e-5,"MEAN_MOTION_DOT":5.25e-6,"MEAN_MOTION_DDOT":0},{"OBJECT_NAME":"STARLINK-2498","OBJECT_ID":"2021-036BC","EPOCH":"2023-02-01T13:15:42.289056","MEAN_MOTION":15.06401106,"ECCENTRICITY":0.0001237,"INCLINATION":53.0542,"RA_OF_ASC_NODE":143.986,"ARG_OF_PERICENTER":93.9311,"MEAN_ANOMALY":266.182,"EPHEMERIS_TYPE":0,"CLASSIFICATION_TYPE":"U","NORAD_CAT_ID":48326,"ELEMENT_SET_NO":999,"REV_AT_EPOCH":9739,"BSTAR":5.8857e-5,"MEAN_MOTION_DOT":5.95e-6,"MEAN_MOTION_DDOT":0},{"OBJECT_NAME":"STARLINK-2502","OBJECT_ID":"2021-036BD","EPOCH":"2023-02-01T13:10:24.010464","MEAN_MOTION":15.06398106,"ECCENTRICITY":0.0001289,"INCLINATION":53.0548,"RA_OF_ASC_NODE":144.0071,"ARG_OF_PERICENTER":92.5471,"MEAN_ANOMALY":267.5666,"EPHEMERIS_TYPE":0,"CLASSIFICATION_TYPE":"U","NORAD_CAT_ID":48327,"ELEMENT_SET_NO":999,"REV_AT_EPOCH":9798,"BSTAR":3.4301e-5,"MEAN_MOTION_DOT":2.3e-6,"MEAN_MOTION_DDOT":0},{"OBJECT_NAME":"STARLINK-2504","OBJECT_ID":"2021-036BE","EPOCH":"2023-02-01T13:03:43.460928","MEAN_MOTION":15.06406028,"ECCENTRICITY":0.0001403,"INCLINATION":53.0535,"RA_OF_ASC_NODE":144.006,"ARG_OF_PERICENTER":107.2043,"MEAN_ANOMALY":252.91,"EPHEMERIS_TYPE":0,"CLASSIFICATION_TYPE":"U","NORAD_CAT_ID":48328,"ELEMENT_SET_NO":999,"REV_AT_EPOCH":9739,"BSTAR":0.00010269,"MEAN_MOTION_DOT":1.249e-5,"MEAN_MOTION_DDOT":0},{"OBJECT_NAME":"STARLINK-2510","OBJECT_ID":"2021-036BF","EPOCH":"2023-02-01T12:59:46.910688","MEAN_MOTION":15.06391129,"ECCENTRICITY":0.0001267,"INCLINATION":53.0532,"RA_OF_ASC_NODE":144.0306,"ARG_OF_PERICENTER":83.698,"MEAN_ANOMALY":276.4153,"EPHEMERIS_TYPE":0,"CLASSIFICATION_TYPE":"U","NORAD_CAT_ID":48329,"ELEMENT_SET_NO":999,"REV_AT_EPOCH":9739,"BSTAR":0.0001514,"MEAN_MOTION_DOT":1.974e-5,"MEAN_MOTION_DDOT":0},{"OBJECT_NAME":"STARLINK-2501","OBJECT_ID":"2021-036BG","EPOCH":"2023-02-01T12:54:28.382400","MEAN_MOTION":15.06399196,"ECCENTRICITY":0.0001172,"INCLINATION":53.0539,"RA_OF_ASC_NODE":144.0527,"ARG_OF_PERICENTER":97.2636,"MEAN_ANOMALY":262.8486,"EPHEMERIS_TYPE":0,"CLASSIFICATION_TYPE":"U","NORAD_CAT_ID":48330,"ELEMENT_SET_NO":999,"REV_AT_EPOCH":9739,"BSTAR":6.6802e-5,"MEAN_MOTION_DOT":7.14e-6,"MEAN_MOTION_DDOT":0},{"OBJECT_NAME":"STARLINK-2514","OBJECT_ID":"2021-036BH","EPOCH":"2023-02-01T12:49:09.912864","MEAN_MOTION":15.06402852,"ECCENTRICITY":0.0001278,"INCLINATION":53.0524,"RA_OF_ASC_NODE":144.0728,"ARG_OF_PERICENTER":87.2741,"MEAN_ANOMALY":272.8394,"EPHEMERIS_TYPE":0,"CLASSIFICATION_TYPE":"U","NORAD_CAT_ID":48331,"ELEMENT_SET_NO":999,"REV_AT_EPOCH":9739,"BSTAR":9.2941e-5,"MEAN_MOTION_DOT":1.103e-5,"MEAN_MOTION_DDOT":0}]
