STARLINK-2506           
1 48315U 21036AR  23032.53043366  .00000721  00000+0  67271-4 0  9999
2 48315  53.0548 134.0661 0001216  87.8023 272.3105 15.06401774 97525
STARLINK-2507           
1 48316U 21036AS  23032.52768793  .00001225  00000+0  10107-3 0  9992
2 48316  53.0549 134.0893 0001089  98.3316 261.7797 15.06405995 98174
STARLINK-2513           
1 48317U 21036AT  23032.52400747  .00000760  00000+0  69939-4 0  9996
2 48317  53.0576 134.1054 0001436 100.4657 259.6494 15.06399485 98170
STARLINK-2509           
1 48318U 21036AU  23032.51571268  .00000623  00000+0  60734-4 0  9995
2 48318  53.0519 144.1519 0001406  92.5271 267.5879 15.06400725 98024
STARLINK-2512           
1 48319U 21036AV  23032.51108720  .00000411  00000+0  46467-4 0  9997
2 48319  53.0531 144.1683 0001233  78.0074 282.1053 15.06396081 97383
STARLINK-2029           
1 48320U 21036AW  23032.50834167  .00003120  00000+0  22829-3 0  9994
2 48320  53.0536 144.1842 0001197  81.4279 278.6845 15.06393834 97383
STARLINK-2457           
1 48321U 21036AX  23032.50465546  .00001017  00000+0  87156-4 0  9994
2 48321  53.0534 144.2046 0001100  91.8873 268.2242 15.06398640 97384
STARLINK-2477           
1 48322U 21036AY  23032.50097367  .00001616  00000+0  12734-3 0  9991
2 48322  53.0524 144.2208 0001370  83.7011 276.4134 15.06399250 97386
STARLINK-2515           
1 48323U 21036AZ  23033.02805410  .00000677  00000+0  64303-4 0  9992
2 48323  53.0560 141.8489 0000952  82.4982 277.6115 15.06402298 98053
STARLINK-2527           
1 48324U 21036BA  23033.02342803  .00001140  00000+0  95449-4 0  9996
2 48324  53.0546 141.8650 0001195  77.9785 282.1338 15.06395143 98056
STARLINK-2495           
1 48325U 21036BB  23032.55626181  .00000525  00000+0  54113-4 0  9997
2 48325  53.0562 143.9716 0001287  81.8512 278.2623 15.06400722 97989
STARLINK-2498           
1 48326U 21036BC  23032.55257279  .00000595  00000+0  58857-4 0  9992
2 48326  53.0542 143.9860 0001237  93.9311 266.1820 15.06401106 97391
STARLINK-2502           
1 48327U 21036BD  23032.54888901  .00000230  00000+0  34301-4 0  9998
2 48327  53.0548 144.0071 0001289  92.5471 267.5666 15.06398106 97986
STARLINK-2504           
1 48328U 21036BE  23032.54425302  .00001249  00000+0  10269-3 0  9998
2 48328  53.0535 144.0060 0001403 107.2043 252.9100 15.06406028 97397
STARLINK-2510           
1 48329U 21036BF  23032.54151517  .00001974  00000+0  15140-3 0  9991
2 48329  53.0532 144.0306 0001267  83.6980 276.4153 15.06391129 97397
STARLINK-2501           
1 48330U 21036BG  23032.53782850  .00000714  00000+0  66802-4 0  9995
2 48330  53.0539 144.0527 0001172  97.2636 262.8486 15.06399196 97395
STARLINK-2514           
1 48331U 21036BH  23032.53414251  .00001103  00000+0  92941-4 0  9999
2 48331  53.0524 144.0728 0001278  87.2741 272.8394 15.06402852 97399
